[{"OBJECT_NAME":"STARLINK-5518","OBJECT_ID":"2023-064X","EPOCH":"2026-03-09T13:13:57.832320","MEAN_MOTION":14.98327015,"ECCENTRICITY":0.00031905,"INCLINATION":69.9999,"RA_OF_ASC_NODE":125.0083,"ARG_OF_PERICENTER":268.3098,"MEAN_ANOMALY":91.7695,"EPHEMERIS_TYPE":0,"CLASSIFICATION_TYPE":"U","NORAD_CAT_ID":56469,"ELEMENT_SET_NO":999,"REV_AT_EPOCH":15571,"BSTAR":-5.3395901e-5,"MEAN_MOTION_DOT":-7.3e-6,"MEAN_MOTION_DDOT":0},{"OBJECT_NAME":"CZ-6A DEB","OBJECT_ID":"2024-140AEQ","EPOCH":"2026-03-08T12:33:24.076512","MEAN_MOTION":14.8870666,"ECCENTRICITY":0.00636681,"INCLINATION":88.9441,"RA_OF_ASC_NODE":276.789,"ARG_OF_PERICENTER":190.9278,"MEAN_ANOMALY":169.0572,"EPHEMERIS_TYPE":0,"CLASSIFICATION_TYPE":"U","NORAD_CAT_ID":64650,"ELEMENT_SET_NO":999,"REV_AT_EPOCH":7602,"BSTAR":0.0049237892,"MEAN_MOTION_DOT":0.00048011,"MEAN_MOTION_DDOT":0}]
